[{"OBJECT_NAME":"SENTINEL-2A","OBJECT_ID":"2015-028A","EPOCH":"2026-02-25T04:19:12.423360","MEAN_MOTION":14.30192923,"ECCENTRICITY":0.00543683,"INCLINATION":98.5024,"RA_OF_ASC_NODE":132.8928,"ARG_OF_PERICENTER":194.7437,"MEAN_ANOMALY":165.2162,"EPHEMERIS_TYPE":0,"CLASSIFICATION_TYPE":"U","NORAD_CAT_ID":40697,"ELEMENT_SET_NO":999,"REV_AT_EPOCH":55771,"BSTAR":7.6852184e-5,"MEAN_MOTION_DOT":1.59e-6,"MEAN_MOTION_DDOT":0},{"OBJECT_NAME":"FENGYUN 1C DEB","OBJECT_ID":"1999-025EAD","EPOCH":"2026-03-07T20:16:09.200352","MEAN_MOTION":14.17614983,"ECCENTRICITY":0.00484309,"INCLINATION":98.7415,"RA_OF_ASC_NODE":116.6329,"ARG_OF_PERICENTER":235.8517,"MEAN_ANOMALY":123.8061,"EPHEMERIS_TYPE":0,"CLASSIFICATION_TYPE":"U","NORAD_CAT_ID":36707,"ELEMENT_SET_NO":999,"REV_AT_EPOCH":65285,"BSTAR":0.00090454202,"MEAN_MOTION_DOT":1.817e-5,"MEAN_MOTION_DDOT":0}]
